[{"OBJECT_NAME":"ONEWEB-0261","OBJECT_ID":"2021-060N","EPOCH":"2025-12-30T06:28:46.075008","MEAN_MOTION":13.16594791,"ECCENTRICITY":0.00017294,"INCLINATION":87.9037,"RA_OF_ASC_NODE":262.4281,"ARG_OF_PERICENTER":60.9677,"MEAN_ANOMALY":299.1627,"EPHEMERIS_TYPE":0,"CLASSIFICATION_TYPE":"U","NORAD_CAT_ID":48979,"ELEMENT_SET_NO":999,"REV_AT_EPOCH":21743,"BSTAR":0.00010529938,"MEAN_MOTION_DOT":5.3e-7,"MEAN_MOTION_DDOT":0},{"OBJECT_NAME":"ONEWEB-0262","OBJECT_ID":"2021-060P","EPOCH":"2025-12-30T06:00:15.520896","MEAN_MOTION":13.16592645,"ECCENTRICITY":0.00013131,"INCLINATION":87.9043,"RA_OF_ASC_NODE":262.4073,"ARG_OF_PERICENTER":66.824,"MEAN_ANOMALY":293.3029,"EPHEMERIS_TYPE":0,"CLASSIFICATION_TYPE":"U","NORAD_CAT_ID":48980,"ELEMENT_SET_NO":999,"REV_AT_EPOCH":21739,"BSTAR":0.00029101959,"MEAN_MOTION_DOT":1.24e-6,"MEAN_MOTION_DDOT":0},{"OBJECT_NAME":"ONEWEB-0263","OBJECT_ID":"2021-060Q","EPOCH":"2025-12-30T04:56:25.528992","MEAN_MOTION":13.16593518,"ECCENTRICITY":0.00016104,"INCLINATION":87.904,"RA_OF_ASC_NODE":262.4297,"ARG_OF_PERICENTER":60.5299,"MEAN_ANOMALY":299.5992,"EPHEMERIS_TYPE":0,"CLASSIFICATION_TYPE":"U","NORAD_CAT_ID":48981,"ELEMENT_SET_NO":999,"REV_AT_EPOCH":21735,"BSTAR":-0.00020662419,"MEAN_MOTION_DOT":-6.6e-7,"MEAN_MOTION_DDOT":0},{"OBJECT_NAME":"ONEWEB-0264","OBJECT_ID":"2021-060R","EPOCH":"2025-12-30T05:50:00.594816","MEAN_MOTION":13.16594483,"ECCENTRICITY":0.00017725,"INCLINATION":87.9035,"RA_OF_ASC_NODE":262.4253,"ARG_OF_PERICENTER":69.6441,"MEAN_ANOMALY":290.488,"EPHEMERIS_TYPE":0,"CLASSIFICATION_TYPE":"U","NORAD_CAT_ID":48982,"ELEMENT_SET_NO":999,"REV_AT_EPOCH":21736,"BSTAR":2.554473e-5,"MEAN_MOTION_DOT":2.3e-7,"MEAN_MOTION_DDOT":0},{"OBJECT_NAME":"ONEWEB-0266","OBJECT_ID":"2021-060T","EPOCH":"2025-12-30T06:20:46.644864","MEAN_MOTION":13.16593252,"ECCENTRICITY":0.00013991,"INCLINATION":87.9043,"RA_OF_ASC_NODE":262.4085,"ARG_OF_PERICENTER":75.7329,"MEAN_ANOMALY":284.3958,"EPHEMERIS_TYPE":0,"CLASSIFICATION_TYPE":"U","NORAD_CAT_ID":48984,"ELEMENT_SET_NO":999,"REV_AT_EPOCH":21735,"BSTAR":0.0003472021,"MEAN_MOTION_DOT":1.46e-6,"MEAN_MOTION_DDOT":0},{"OBJECT_NAME":"ONEWEB-0267","OBJECT_ID":"2021-060U","EPOCH":"2025-12-30T06:36:44.902080","MEAN_MOTION":13.16593431,"ECCENTRICITY":0.00016953,"INCLINATION":87.9042,"RA_OF_ASC_NODE":262.4046,"ARG_OF_PERICENTER":67.0917,"MEAN_ANOMALY":293.0393,"EPHEMERIS_TYPE":0,"CLASSIFICATION_TYPE":"U","NORAD_CAT_ID":48985,"ELEMENT_SET_NO":999,"REV_AT_EPOCH":21736,"BSTAR":-6.4304621e-5,"MEAN_MOTION_DOT":-1.2e-7,"MEAN_MOTION_DDOT":0},{"OBJECT_NAME":"ONEWEB-0268","OBJECT_ID":"2021-060V","EPOCH":"2025-12-30T05:51:08.183808","MEAN_MOTION":13.16592892,"ECCENTRICITY":0.00016404,"INCLINATION":87.9043,"RA_OF_ASC_NODE":262.4202,"ARG_OF_PERICENTER":73.7272,"MEAN_ANOMALY":286.4039,"EPHEMERIS_TYPE":0,"CLASSIFICATION_TYPE":"U","NORAD_CAT_ID":48986,"ELEMENT_SET_NO":999,"REV_AT_EPOCH":21762,"BSTAR":0.00017267432,"MEAN_MOTION_DOT":7.9e-7,"MEAN_MOTION_DDOT":0},{"OBJECT_NAME":"ONEWEB-0269","OBJECT_ID":"2021-060W","EPOCH":"2025-12-30T03:34:21.464256","MEAN_MOTION":13.16593715,"ECCENTRICITY":0.00017199,"INCLINATION":87.9032,"RA_OF_ASC_NODE":262.4593,"ARG_OF_PERICENTER":80.5605,"MEAN_ANOMALY":279.572,"EPHEMERIS_TYPE":0,"CLASSIFICATION_TYPE":"U","NORAD_CAT_ID":48987,"ELEMENT_SET_NO":999,"REV_AT_EPOCH":21738,"BSTAR":-0.00010226618,"MEAN_MOTION_DOT":-2.6e-7,"MEAN_MOTION_DDOT":0},{"OBJECT_NAME":"ONEWEB-0270","OBJECT_ID":"2021-060X","EPOCH":"2025-12-30T05:48:52.465824","MEAN_MOTION":13.16593139,"ECCENTRICITY":0.00014545,"INCLINATION":87.9042,"RA_OF_ASC_NODE":262.4222,"ARG_OF_PERICENTER":57.9194,"MEAN_ANOMALY":302.2078,"EPHEMERIS_TYPE":0,"CLASSIFICATION_TYPE":"U","NORAD_CAT_ID":48988,"ELEMENT_SET_NO":999,"REV_AT_EPOCH":21743,"BSTAR":0.00015689356,"MEAN_MOTION_DOT":7.3e-7,"MEAN_MOTION_DDOT":0},{"OBJECT_NAME":"ONEWEB-0271","OBJECT_ID":"2021-060Y","EPOCH":"2025-12-30T05:30:38.153664","MEAN_MOTION":13.16593242,"ECCENTRICITY":0.00016521,"INCLINATION":87.9046,"RA_OF_ASC_NODE":262.4141,"ARG_OF_PERICENTER":65.9726,"MEAN_ANOMALY":294.1577,"EPHEMERIS_TYPE":0,"CLASSIFICATION_TYPE":"U","NORAD_CAT_ID":48989,"ELEMENT_SET_NO":999,"REV_AT_EPOCH":21743,"BSTAR":-4.3122758e-5,"MEAN_MOTION_DOT":-4.0e-8,"MEAN_MOTION_DDOT":0},{"OBJECT_NAME":"ONEWEB-0272","OBJECT_ID":"2021-060Z","EPOCH":"2025-12-30T06:02:32.341344","MEAN_MOTION":13.16592345,"ECCENTRICITY":0.00017973,"INCLINATION":87.9038,"RA_OF_ASC_NODE":262.4234,"ARG_OF_PERICENTER":68.1133,"MEAN_ANOMALY":292.0189,"EPHEMERIS_TYPE":0,"CLASSIFICATION_TYPE":"U","NORAD_CAT_ID":48990,"ELEMENT_SET_NO":999,"REV_AT_EPOCH":21738,"BSTAR":0.00032622173,"MEAN_MOTION_DOT":1.38e-6,"MEAN_MOTION_DDOT":0},{"OBJECT_NAME":"ONEWEB-0273","OBJECT_ID":"2021-060AA","EPOCH":"2025-12-30T06:34:28.309728","MEAN_MOTION":13.16592598,"ECCENTRICITY":0.00015322,"INCLINATION":87.9046,"RA_OF_ASC_NODE":262.4156,"ARG_OF_PERICENTER":66.703,"MEAN_ANOMALY":293.4262,"EPHEMERIS_TYPE":0,"CLASSIFICATION_TYPE":"U","NORAD_CAT_ID":48991,"ELEMENT_SET_NO":999,"REV_AT_EPOCH":21736,"BSTAR":6.923006e-6,"MEAN_MOTION_DOT":1.5e-7,"MEAN_MOTION_DDOT":0},{"OBJECT_NAME":"ONEWEB-0274","OBJECT_ID":"2021-060AB","EPOCH":"2025-12-30T05:21:30.511584","MEAN_MOTION":13.16592965,"ECCENTRICITY":0.0001968,"INCLINATION":87.9034,"RA_OF_ASC_NODE":262.4469,"ARG_OF_PERICENTER":74.3029,"MEAN_ANOMALY":285.8319,"EPHEMERIS_TYPE":0,"CLASSIFICATION_TYPE":"U","NORAD_CAT_ID":48992,"ELEMENT_SET_NO":999,"REV_AT_EPOCH":21739,"BSTAR":-0.00023977083,"MEAN_MOTION_DOT":-7.9e-7,"MEAN_MOTION_DDOT":0},{"OBJECT_NAME":"ONEWEB-0275","OBJECT_ID":"2021-060AC","EPOCH":"2025-12-30T05:05:32.845344","MEAN_MOTION":13.16593464,"ECCENTRICITY":0.00016784,"INCLINATION":87.9047,"RA_OF_ASC_NODE":262.4213,"ARG_OF_PERICENTER":71.2533,"MEAN_ANOMALY":288.8779,"EPHEMERIS_TYPE":0,"CLASSIFICATION_TYPE":"U","NORAD_CAT_ID":48993,"ELEMENT_SET_NO":999,"REV_AT_EPOCH":21732,"BSTAR":-0.00020580119,"MEAN_MOTION_DOT":-6.6e-7,"MEAN_MOTION_DDOT":0},{"OBJECT_NAME":"ONEWEB-0276","OBJECT_ID":"2021-060AD","EPOCH":"2025-12-30T05:53:25.276416","MEAN_MOTION":13.16592341,"ECCENTRICITY":0.00014016,"INCLINATION":87.9043,"RA_OF_ASC_NODE":262.4142,"ARG_OF_PERICENTER":70.194,"MEAN_ANOMALY":289.9342,"EPHEMERIS_TYPE":0,"CLASSIFICATION_TYPE":"U","NORAD_CAT_ID":48994,"ELEMENT_SET_NO":999,"REV_AT_EPOCH":21734,"BSTAR":0.00029340683,"MEAN_MOTION_DOT":1.25e-6,"MEAN_MOTION_DDOT":0},{"OBJECT_NAME":"ONEWEB-0277","OBJECT_ID":"2021-060AE","EPOCH":"2025-12-30T06:11:40.141536","MEAN_MOTION":13.16594855,"ECCENTRICITY":0.00016096,"INCLINATION":87.9033,"RA_OF_ASC_NODE":262.434,"ARG_OF_PERICENTER":72.6224,"MEAN_ANOMALY":287.5083,"EPHEMERIS_TYPE":0,"CLASSIFICATION_TYPE":"U","NORAD_CAT_ID":48995,"ELEMENT_SET_NO":999,"REV_AT_EPOCH":21733,"BSTAR":0.00034965009,"MEAN_MOTION_DOT":1.47e-6,"MEAN_MOTION_DDOT":0}]
