ONEWEB-0261             
1 48979U 21060N   25364.26997772  .00000053  00000+0  10530-3 0  9994
2 48979  87.9037 262.4281 0001729  60.9677 299.1627 13.16594791217431
ONEWEB-0262             
1 48980U 21060P   25364.25017964  .00000124  00000+0  29102-3 0  9995
2 48980  87.9043 262.4073 0001313  66.8240 293.3029 13.16592645217392
ONEWEB-0263             
1 48981U 21060Q   25364.20585103 -.00000066  00000+0 -20662-3 0  9995
2 48981  87.9040 262.4297 0001610  60.5299 299.5992 13.16593518217356
ONEWEB-0264             
1 48982U 21060R   25364.24306244  .00000023  00000+0  25545-4 0  9994
2 48982  87.9035 262.4253 0001772  69.6441 290.4880 13.16594483217360
ONEWEB-0266             
1 48984U 21060T   25364.26442876  .00000146  00000+0  34720-3 0  9990
2 48984  87.9043 262.4085 0001399  75.7329 284.3958 13.16593252217352
ONEWEB-0267             
1 48985U 21060U   25364.27551970 -.00000012  00000+0 -64305-4 0  9995
2 48985  87.9042 262.4046 0001695  67.0917 293.0393 13.16593431217365
ONEWEB-0268             
1 48986U 21060V   25364.24384472  .00000079  00000+0  17267-3 0  9999
2 48986  87.9043 262.4202 0001640  73.7272 286.4039 13.16592892217621
ONEWEB-0269             
1 48987U 21060W   25364.14885954 -.00000026  00000+0 -10227-3 0  9993
2 48987  87.9032 262.4593 0001719  80.5605 279.5720 13.16593715217384
ONEWEB-0270             
1 48988U 21060X   25364.24227391  .00000073  00000+0  15689-3 0  9997
2 48988  87.9042 262.4222 0001454  57.9194 302.2078 13.16593139217438
ONEWEB-0271             
1 48989U 21060Y   25364.22960826 -.00000004  00000+0 -43123-4 0  9994
2 48989  87.9046 262.4141 0001652  65.9726 294.1577 13.16593242217431
ONEWEB-0272             
1 48990U 21060Z   25364.25176321  .00000138  00000+0  32622-3 0  9995
2 48990  87.9038 262.4234 0001797  68.1133 292.0189 13.16592345217387
ONEWEB-0273             
1 48991U 21060AA  25364.27393877  .00000015  00000+0  69230-5 0  9996
2 48991  87.9046 262.4156 0001532  66.7030 293.4262 13.16592598217362
ONEWEB-0274             
1 48992U 21060AB  25364.22326981 -.00000079  00000+0 -23977-3 0  9992
2 48992  87.9034 262.4469 0001968  74.3029 285.8319 13.16592965217392
ONEWEB-0275             
1 48993U 21060AC  25364.21218571 -.00000066  00000+0 -20580-3 0  9990
2 48993  87.9047 262.4213 0001678  71.2533 288.8779 13.16593464217329
ONEWEB-0276             
1 48994U 21060AD  25364.24543144  .00000125  00000+0  29341-3 0  9999
2 48994  87.9043 262.4142 0001401  70.1940 289.9342 13.16592341217344
ONEWEB-0277             
1 48995U 21060AE  25364.25810349  .00000147  00000+0  34965-3 0  9997
2 48995  87.9033 262.4340 0001609  72.6224 287.5083 13.16594855217333
